{
  "type": "FeatureCollection",
  "features": [
    {
      "type": "Feature",
      "properties": {
        "norad_id": 31544,
        "name": "FENGYUN 1C DEB",
        "group": "fengyun-1c-debris",
        "lat": 44.5479457874363,
        "lon": 26.20449600599075,
        "alt_km": 854.6439943378082,
        "timestamp": "2025-12-09T16:56:36.857754+00:00",
        "meta_object_name": "FENGYUN 1C DEB",
        "meta_object_id": "1999-025BYK",
        "meta_epoch": "2025-12-09T09:56:19.046112",
        "meta_mean_motion": 14.14322372,
        "meta_eccentricity": 0.0031648,
        "meta_inclination": 98.8297,
        "meta_ra_of_asc_node": 34.7171,
        "meta_arg_of_pericenter": 278.6332,
        "meta_mean_anomaly": 81.1256,
        "meta_ephemeris_type": 0,
        "meta_classification_type": "U",
        "meta_norad_cat_id": 31544,
        "meta_element_set_no": 999,
        "meta_rev_at_epoch": 95710,
        "meta_bstar": 0.0011744,
        "meta_mean_motion_dot": 2.211e-05,
        "meta_mean_motion_ddot": 0,
        "tle_line1": "1 31544U 99025BYK 25343.41410933  .00002211  00000+0  11744-2 0  9998",
        "tle_line2": "2 31544  98.8297  34.7171 0031648 278.6332  81.1256 14.14322372957102"
      },
      "geometry": {
        "type": "Point",
        "coordinates": [
          26.20449600599075,
          44.5479457874363
        ]
      }
    },
    {
      "type": "Feature",
      "properties": {
        "norad_id": 31546,
        "name": "FENGYUN 1C DEB",
        "group": "fengyun-1c-debris",
        "lat": -44.392819720490664,
        "lon": -134.70530525770525,
        "alt_km": 834.443159496228,
        "timestamp": "2025-12-09T16:56:36.857764+00:00",
        "meta_object_name": "FENGYUN 1C DEB",
        "meta_object_id": "1999-025BYM",
        "meta_epoch": "2025-12-09T10:47:47.985216",
        "meta_mean_motion": 14.13091406,
        "meta_eccentricity": 0.0146625,
        "meta_inclination": 98.2443,
        "meta_ra_of_asc_node": 53.2189,
        "meta_arg_of_pericenter": 146.2501,
        "meta_mean_anomaly": 214.8114,
        "meta_ephemeris_type": 0,
        "meta_classification_type": "U",
        "meta_norad_cat_id": 31546,
        "meta_element_set_no": 999,
        "meta_rev_at_epoch": 94742,
        "meta_bstar": 0.0026865,
        "meta_mean_motion_dot": 5.524e-05,
        "meta_mean_motion_ddot": 0,
        "tle_line1": "1 31546U 99025BYM 25343.44986094  .00005524  00000+0  26865-2 0  9999",
        "tle_line2": "2 31546  98.2443  53.2189 0146625 146.2501 214.8114 14.13091406947428"
      },
      "geometry": {
        "type": "Point",
        "coordinates": [
          -134.70530525770525,
          -44.392819720490664
        ]
      }
    },
    {
      "type": "Feature",
      "properties": {
        "norad_id": 31547,
        "name": "FENGYUN 1C DEB",
        "group": "fengyun-1c-debris",
        "lat": -62.677973653834826,
        "lon": -170.6658330991661,
        "alt_km": 785.0949542201079,
        "timestamp": "2025-12-09T16:56:36.857775+00:00",
        "meta_object_name": "FENGYUN 1C DEB",
        "meta_object_id": "1999-025BYN",
        "meta_epoch": "2025-12-09T09:02:48.493824",
        "meta_mean_motion": 14.23103077,
        "meta_eccentricity": 0.0053783,
        "meta_inclination": 99.0872,
        "meta_ra_of_asc_node": 27.0415,
        "meta_arg_of_pericenter": 262.539,
        "meta_mean_anomaly": 96.9674,
        "meta_ephemeris_type": 0,
        "meta_classification_type": "U",
        "meta_norad_cat_id": 31547,
        "meta_element_set_no": 999,
        "meta_rev_at_epoch": 63969,
        "meta_bstar": 0.0021138,
        "meta_mean_motion_dot": 4.797e-05,
        "meta_mean_motion_ddot": 0,
        "tle_line1": "1 31547U 99025BYN 25343.37695016  .00004797  00000+0  21138-2 0  9992",
        "tle_line2": "2 31547  99.0872  27.0415 0053783 262.5390  96.9674 14.23103077639691"
      },
      "geometry": {
        "type": "Point",
        "coordinates": [
          -170.6658330991661,
          -62.677973653834826
        ]
      }
    },
    {
      "type": "Feature",
      "properties": {
        "norad_id": 31550,
        "name": "FENGYUN 1C DEB",
        "group": "fengyun-1c-debris",
        "lat": -52.55604638590022,
        "lon": 152.24609073321872,
        "alt_km": 673.9290779226294,
        "timestamp": "2025-12-09T16:56:36.858032+00:00",
        "meta_object_name": "FENGYUN 1C DEB",
        "meta_object_id": "1999-025BYR",
        "meta_epoch": "2025-12-08T18:10:11.266176",
        "meta_mean_motion": 14.40173204,
        "meta_eccentricity": 0.01902168,
        "meta_inclination": 98.3115,
        "meta_ra_of_asc_node": 342.3294,
        "meta_arg_of_pericenter": 284.9063,
        "meta_mean_anomaly": 73.1133,
        "meta_ephemeris_type": 0,
        "meta_classification_type": "U",
        "meta_norad_cat_id": 31550,
        "meta_element_set_no": 999,
        "meta_rev_at_epoch": 65397,
        "meta_bstar": 0.0013773158,
        "meta_mean_motion_dot": 5.342e-05,
        "meta_mean_motion_ddot": 0,
        "tle_line1": "1 31550U 99025BYR 25342.75707484  .00005342  00000+0  13773-2 0  9993",
        "tle_line2": "2 31550  98.3115 342.3294 0190216 284.9063  73.1133 14.40173204653975"
      },
      "geometry": {
        "type": "Point",
        "coordinates": [
          152.24609073321872,
          -52.55604638590022
        ]
      }
    },
    {
      "type": "Feature",
      "properties": {
        "norad_id": 31552,
        "name": "FENGYUN 1C DEB",
        "group": "fengyun-1c-debris",
        "lat": 31.398131854569574,
        "lon": -69.17220514150519,
        "alt_km": 766.3857283783236,
        "timestamp": "2025-12-09T16:56:36.858045+00:00",
        "meta_object_name": "FENGYUN 1C DEB",
        "meta_object_id": "1999-025BYT",
        "meta_epoch": "2025-12-08T07:02:34.816992",
        "meta_mean_motion": 14.4554573,
        "meta_eccentricity": 0.00857548,
        "meta_inclination": 98.6225,
        "meta_ra_of_asc_node": 104.079,
        "meta_arg_of_pericenter": 34.5602,
        "meta_mean_anomaly": 326.1122,
        "meta_ephemeris_type": 0,
        "meta_classification_type": "U",
        "meta_norad_cat_id": 31552,
        "meta_element_set_no": 999,
        "meta_rev_at_epoch": 95812,
        "meta_bstar": 0.0034430126,
        "meta_mean_motion_dot": 0.00012687,
        "meta_mean_motion_ddot": 0,
        "tle_line1": "1 31552U 99025BYT 25342.29345853  .00012687  00000+0  34430-2 0  9995",
        "tle_line2": "2 31552  98.6225 104.0790 0085754  34.5602 326.1122 14.45545730958120"
      },
      "geometry": {
        "type": "Point",
        "coordinates": [
          -69.17220514150519,
          31.398131854569574
        ]
      }
    },
    {
      "type": "Feature",
      "properties": {
        "norad_id": 31553,
        "name": "FENGYUN 1C DEB",
        "group": "fengyun-1c-debris",
        "lat": -44.642089634883234,
        "lon": -150.65339191324787,
        "alt_km": 807.0330926717706,
        "timestamp": "2025-12-09T16:56:36.858056+00:00",
        "meta_object_name": "FENGYUN 1C DEB",
        "meta_object_id": "1999-025BYU",
        "meta_epoch": "2025-12-09T02:33:47.592576",
        "meta_mean_motion": 14.30107061,
        "meta_eccentricity": 0.00306299,
        "meta_inclination": 99.0024,
        "meta_ra_of_asc_node": 37.7345,
        "meta_arg_of_pericenter": 112.6008,
        "meta_mean_anomaly": 269.2597,
        "meta_ephemeris_type": 0,
        "meta_classification_type": "U",
        "meta_norad_cat_id": 31553,
        "meta_element_set_no": 999,
        "meta_rev_at_epoch": 95858,
        "meta_bstar": 0.0019990997,
        "meta_mean_motion_dot": 5.151e-05,
        "meta_mean_motion_ddot": 0,
        "tle_line1": "1 31553U 99025BYU 25343.10680084  .00005151  00000+0  19991-2 0  9998",
        "tle_line2": "2 31553  99.0024  37.7345 0030629 112.6008 269.2597 14.30107061958588"
      },
      "geometry": {
        "type": "Point",
        "coordinates": [
          -150.65339191324787,
          -44.642089634883234
        ]
      }
    },
    {
      "type": "Feature",
      "properties": {
        "norad_id": 31555,
        "name": "FENGYUN 1C DEB",
        "group": "fengyun-1c-debris",
        "lat": -11.982280511969837,
        "lon": 115.68600528721082,
        "alt_km": 641.9024509915789,
        "timestamp": "2025-12-09T16:56:36.858067+00:00",
        "meta_object_name": "FENGYUN 1C DEB",
        "meta_object_id": "1999-025BYW",
        "meta_epoch": "2025-12-07T02:31:39.558144",
        "meta_mean_motion": 14.44158663,
        "meta_eccentricity": 0.01545207,
        "meta_inclination": 99.1039,
        "meta_ra_of_asc_node": 294.8535,
        "meta_arg_of_pericenter": 213.2009,
        "meta_mean_anomaly": 145.9411,
        "meta_ephemeris_type": 0,
        "meta_classification_type": "U",
        "meta_norad_cat_id": 31555,
        "meta_element_set_no": 999,
        "meta_rev_at_epoch": 96482,
        "meta_bstar": 0.0022170192,
        "meta_mean_motion_dot": 8.749e-05,
        "meta_mean_motion_ddot": 0,
        "tle_line1": "1 31555U 99025BYW 25341.10531896  .00008749  00000+0  22170-2 0  9993",
        "tle_line2": "2 31555  99.1039 294.8535 0154520 213.2009 145.9411 14.44158663964828"
      },
      "geometry": {
        "type": "Point",
        "coordinates": [
          115.68600528721082,
          -11.982280511969837
        ]
      }
    }
  ]
}